[
    {
        "Altitude(m)": 702751.4195231587,
        "Argument of Periapsis(deg)": 0.004556048474650827,
        "Eccentricity": 0.0,
        "Inclination(deg)": 45.0,
        "Latitude(deg)": 8.264766918396734,
        "Longitude(deg)": -88.59812697767751,
        "Mean Anomaly(deg)": -191.75031334100765,
        "RAAN(deg)": 199.9956992234167,
        "Satellite Name": "Constellation 1 890",
        "Satellite Number": 890,
        "Semi-Major Axis(m)": 7083131.272910544,
        "Time(s)": 76
    },
    {
        "Altitude(m)": 702753.0669132189,
        "Argument of Periapsis(deg)": 0.004615996480896233,
        "Eccentricity": 0.0,
        "Inclination(deg)": 45.0,
        "Latitude(deg)": 8.222000321181632,
        "Longitude(deg)": -88.55847407759062,
        "Mean Anomaly(deg)": -191.68961220075778,
        "RAAN(deg)": 199.99564263425114,
        "Satellite Name": "Constellation 1 890",
        "Satellite Number": 890,
        "Semi-Major Axis(m)": 7083131.272910544,
        "Time(s)": 77
    },
    {
        "Altitude(m)": 702754.7344732097,
        "Argument of Periapsis(deg)": 0.004675944487141638,
        "Eccentricity": 0.0,
        "Inclination(deg)": 45.0,
        "Latitude(deg)": 8.179228920662952,
        "Longitude(deg)": -88.51883059638514,
        "Mean Anomaly(deg)": -191.62891106050785,
        "RAAN(deg)": 199.9955860450856,
        "Satellite Name": "Constellation 1 890",
        "Satellite Number": 890,
        "Semi-Major Axis(m)": 7083131.272910544,
        "Time(s)": 78
    },
    {
        "Altitude(m)": 702756.4222142261,
        "Argument of Periapsis(deg)": 0.004735892493387044,
        "Eccentricity": 0.0,
        "Inclination(deg)": 45.0,
        "Latitude(deg)": 8.136452743504263,
        "Longitude(deg)": -88.47919648377494,
        "Mean Anomaly(deg)": -191.56820992025797,
        "RAAN(deg)": 199.99552945592,
        "Satellite Name": "Constellation 1 890",
        "Satellite Number": 890,
        "Semi-Major Axis(m)": 7083131.272910544,
        "Time(s)": 79
    },
    {
        "Altitude(m)": 702758.13014726,
        "Argument of Periapsis(deg)": 0.004795840499632449,
        "Eccentricity": 0.0,
        "Inclination(deg)": 45.0,
        "Latitude(deg)": 8.093671816350943,
        "Longitude(deg)": -88.4395716894936,
        "Mean Anomaly(deg)": -191.507508780008,
        "RAAN(deg)": 199.99547286675445,
        "Satellite Name": "Constellation 1 890",
        "Satellite Number": 890,
        "Semi-Major Axis(m)": 7083131.272910544,
        "Time(s)": 80
    },
    {
        "Altitude(m)": 702759.8582832208,
        "Argument of Periapsis(deg)": 0.004855788505877855,
        "Eccentricity": 0.0,
        "Inclination(deg)": 45.0,
        "Latitude(deg)": 8.050886165830645,
        "Longitude(deg)": -88.39995616329473,
        "Mean Anomaly(deg)": -191.44680763975816,
        "RAAN(deg)": 199.9954162775889,
        "Satellite Name": "Constellation 1 890",
        "Satellite Number": 890,
        "Semi-Major Axis(m)": 7083131.272910544,
        "Time(s)": 81
    },
    {
        "Altitude(m)": 702761.6066329323,
        "Argument of Periapsis(deg)": 0.00491573651212326,
        "Eccentricity": 0.0,
        "Inclination(deg)": 45.0,
        "Latitude(deg)": 8.008095818553072,
        "Longitude(deg)": -88.36035002304844,
        "Mean Anomaly(deg)": -191.38610649950826,
        "RAAN(deg)": 199.9953596884233,
        "Satellite Name": "Constellation 1 890",
        "Satellite Number": 890,
        "Semi-Major Axis(m)": 7083131.272910544,
        "Time(s)": 82
    },
    {
        "Altitude(m)": 702763.3752071296,
        "Argument of Periapsis(deg)": 0.004975684518368666,
        "Eccentricity": 0.0,
        "Inclination(deg)": 45.0,
        "Latitude(deg)": 7.965300801110131,
        "Longitude(deg)": -88.32075288235349,
        "Mean Anomaly(deg)": -191.32540535925833,
        "RAAN(deg)": 199.99530309925774,
        "Satellite Name": "Constellation 1 890",
        "Satellite Number": 890,
        "Semi-Major Axis(m)": 7083131.272910544,
        "Time(s)": 83
    },
    {
        "Altitude(m)": 702765.1640164588,
        "Argument of Periapsis(deg)": 0.005035632524614072,
        "Eccentricity": 0.0,
        "Inclination(deg)": 45.0,
        "Latitude(deg)": 7.922501140076438,
        "Longitude(deg)": -88.28116485911957,
        "Mean Anomaly(deg)": -191.26470421900845,
        "RAAN(deg)": 199.99524651009216,
        "Satellite Name": "Constellation 1 890",
        "Satellite Number": 890,
        "Semi-Major Axis(m)": 7083131.272910544,
        "Time(s)": 84
    },
    {
        "Altitude(m)": 702766.9730714773,
        "Argument of Periapsis(deg)": 0.0050955805308594785,
        "Eccentricity": 0.0,
        "Inclination(deg)": 45.0,
        "Latitude(deg)": 7.879696862008705,
        "Longitude(deg)": -88.24158590317829,
        "Mean Anomaly(deg)": -191.20400307875855,
        "RAAN(deg)": 199.9951899209266,
        "Satellite Name": "Constellation 1 890",
        "Satellite Number": 890,
        "Semi-Major Axis(m)": 7083131.272910544,
        "Time(s)": 85
    },
    {
        "Altitude(m)": 702768.8023826556,
        "Argument of Periapsis(deg)": 0.005155528537104883,
        "Eccentricity": 0.0,
        "Inclination(deg)": 45.0,
        "Latitude(deg)": 7.836887993446492,
        "Longitude(deg)": -88.202015964381,
        "Mean Anomaly(deg)": -191.14330193850864,
        "RAAN(deg)": 199.99513333176105,
        "Satellite Name": "Constellation 1 890",
        "Satellite Number": 890,
        "Semi-Major Axis(m)": 7083131.272910544,
        "Time(s)": 86
    },
    {
        "Altitude(m)": 702770.6519603828,
        "Argument of Periapsis(deg)": 0.0052154765433502885,
        "Eccentricity": 0.0,
        "Inclination(deg)": 45.0,
        "Latitude(deg)": 7.794074560911985,
        "Longitude(deg)": -88.16245499259824,
        "Mean Anomaly(deg)": -191.0826007982588,
        "RAAN(deg)": 199.99507674259544,
        "Satellite Name": "Constellation 1 890",
        "Satellite Number": 890,
        "Semi-Major Axis(m)": 7083131.272910544,
        "Time(s)": 87
    },
    {
        "Altitude(m)": 702772.5218149443,
        "Argument of Periapsis(deg)": 0.005275424549595694,
        "Eccentricity": 0.0,
        "Inclination(deg)": 45.0,
        "Latitude(deg)": 7.751256590909995,
        "Longitude(deg)": -88.12290293771962,
        "Mean Anomaly(deg)": -191.02189965800883,
        "RAAN(deg)": 199.9950201534299,
        "Satellite Name": "Constellation 1 890",
        "Satellite Number": 890,
        "Semi-Major Axis(m)": 7083131.272910544,
        "Time(s)": 88
    },
    {
        "Altitude(m)": 702774.4119565526,
        "Argument of Periapsis(deg)": 0.0053353725558411,
        "Eccentricity": 0.0,
        "Inclination(deg)": 45.0,
        "Latitude(deg)": 7.708434109928487,
        "Longitude(deg)": -88.08335991775111,
        "Mean Anomaly(deg)": -190.961198517759,
        "RAAN(deg)": 199.9949635642643,
        "Satellite Name": "Constellation 1 890",
        "Satellite Number": 890,
        "Semi-Major Axis(m)": 7083131.272910544,
        "Time(s)": 89
    },
    {
        "Altitude(m)": 702776.3223953253,
        "Argument of Periapsis(deg)": 0.005395320562086505,
        "Eccentricity": 0.0,
        "Inclination(deg)": 45.0,
        "Latitude(deg)": 7.665607144438088,
        "Longitude(deg)": -88.04382554642638,
        "Mean Anomaly(deg)": -190.90049737750905,
        "RAAN(deg)": 199.99490697509876,
        "Satellite Name": "Constellation 1 890",
        "Satellite Number": 890,
        "Semi-Major Axis(m)": 7083131.272910544,
        "Time(s)": 90
    },
    {
        "Altitude(m)": 702778.2531412939,
        "Argument of Periapsis(deg)": 0.00545526856833191,
        "Eccentricity": 0.0,
        "Inclination(deg)": 45.0,
        "Latitude(deg)": 7.622775720892725,
        "Longitude(deg)": -88.0042999417892,
        "Mean Anomaly(deg)": -190.83979623725915,
        "RAAN(deg)": 199.9948503859332,
        "Satellite Name": "Constellation 1 890",
        "Satellite Number": 890,
        "Semi-Major Axis(m)": 7083131.272910544,
        "Time(s)": 91
    },
    {
        "Altitude(m)": 702780.2042043951,
        "Argument of Periapsis(deg)": 0.005515216574577317,
        "Eccentricity": 0.0,
        "Inclination(deg)": 45.0,
        "Latitude(deg)": 7.579939865729301,
        "Longitude(deg)": -87.96478305380496,
        "Mean Anomaly(deg)": -190.7790950970093,
        "RAAN(deg)": 199.9947937967676,
        "Satellite Name": "Constellation 1 890",
        "Satellite Number": 890,
        "Semi-Major Axis(m)": 7083131.272910544,
        "Time(s)": 92
    },
    {
        "Altitude(m)": 702782.1755944858,
        "Argument of Periapsis(deg)": 0.005575164580822722,
        "Eccentricity": 0.0,
        "Inclination(deg)": 45.0,
        "Latitude(deg)": 7.537099605368092,
        "Longitude(deg)": -87.925274832458,
        "Mean Anomaly(deg)": -190.71839395675937,
        "RAAN(deg)": 199.99473720760204,
        "Satellite Name": "Constellation 1 890",
        "Satellite Number": 890,
        "Semi-Major Axis(m)": 7083131.272910544,
        "Time(s)": 93
    },
    {
        "Altitude(m)": 702784.16732133,
        "Argument of Periapsis(deg)": 0.005635112587068129,
        "Eccentricity": 0.0,
        "Inclination(deg)": 45.0,
        "Latitude(deg)": 7.494254966212778,
        "Longitude(deg)": -87.88577522775124,
        "Mean Anomaly(deg)": -190.65769281650947,
        "RAAN(deg)": 199.99468061843646,
        "Satellite Name": "Constellation 1 890",
        "Satellite Number": 890,
        "Semi-Major Axis(m)": 7083131.272910544,
        "Time(s)": 94
    }
]